ONEWEB-0208             
1 48243U 21031AK  24126.18386519  .00000184  00000+0  46151-3 0  9996
2 48243  87.8941  83.5099 0002214  84.6535 275.4847 13.14504180146751
ONEWEB-0200             
1 48244U 21031AL  24126.14738662 -.00000123  00000+0 -36497-3 0  9990
2 48244  87.8937  83.5152 0002266  86.5364 273.6025 13.14503740146686
ONEWEB-0217             
1 48245U 21031AM  24126.16325922  .00000068  00000+0  14908-3 0  9993
2 48245  87.8938  83.4965 0002353  89.1294 271.0105 13.14503215146630
ONEWEB-0211             
1 48767U 21045A   24126.20044666 -.00000002  00000+0 -40225-4 0  9997
2 48767  87.9051  53.0000 0001990  81.4139 278.7216 13.15550331143915
ONEWEB-0223             
1 48768U 21045B   24126.29868738 -.00000025  00000+0 -10044-3 0  9991
2 48768  87.9050  52.9864 0001923 102.9525 257.1820 13.15549775143928
ONEWEB-0230             
1 48769U 21045C   24125.81381739  .00000017  00000+0  10901-4 0  9992
2 48769  87.9052  53.1542 0001773  78.7777 281.3553 13.15551272144095
ONEWEB-0237             
1 48770U 21045D   24125.80273027  .00000047  00000+0  91952-4 0  9991
2 48770  87.9060  53.0849 0001808  93.1706 266.9631 13.15550148143835
ONEWEB-0235             
1 48771U 21045E   24126.15766534  .00000090  00000+0  20400-3 0  9998
2 48771  87.9047  53.0280 0001688 104.3974 255.7343 13.15549463143865
ONEWEB-0242             
1 48772U 21045F   24126.07527024  .00000127  00000+0  30259-3 0  9993
2 48772  87.9046  53.0331 0001768  84.5600 275.5732 13.15549120143903
ONEWEB-0241             
1 48773U 21045G   24125.83441252 -.00000475  00000+0 -12958-2 0  9998
2 48773  87.9054  53.1239 0002212  91.7889 268.3494 13.15547973143780
ONEWEB-0243             
1 48774U 21045H   24126.17034044  .00000123  00000+0  29205-3 0  9996
2 48774  87.9058  53.0157 0001912  96.1918 263.9430 13.15548948143853
ONEWEB-0222             
1 48775U 21045J   24126.15370017 -.00000061  00000+0 -19578-3 0  9993
2 48775  87.9046  53.0276 0002000  89.9302 270.2058 13.15550522143880
ONEWEB-0244             
1 48776U 21045K   24125.87561373  .00000126  00000+0  30168-3 0  9997
2 48776  87.9048  53.0660 0001672  81.6892 278.4428 13.15550880144415
ONEWEB-0247             
1 48777U 21045L   24125.87244919  .00000170  00000+0  41781-3 0  9994
2 48777  87.9056  53.1041 0001614 116.4512 243.6784 13.15549685143869
ONEWEB-0245             
1 48778U 21045M   24125.86769352  .00000167  00000+0  41044-3 0  9995
2 48778  87.9048  53.0975 0002148  85.9884 274.1492 13.15551179143834
ONEWEB-0229             
1 48779U 21045N   24126.16717413  .00000071  00000+0  15331-3 0  9995
2 48779  87.9047  53.0310 0001765  84.4484 275.6847 13.15549133143906
ONEWEB-0228             
1 48780U 21045P   24125.80194093  .00000018  00000+0  13830-4 0  9994
2 48780  87.9048  53.0798 0001826  82.2559 277.8779 13.15549701143770
ONEWEB-0232             
1 48781U 21045Q   24126.32722001  .00000097  00000+0  22386-3 0  9991
2 48781  87.9041  52.9989 0001837  83.5653 276.5687 13.15548661144156
ONEWEB-0231             
1 48782U 21045R   24125.54445454  .00000046  00000+0  88516-4 0  9991
2 48782  87.9054  53.1777 0001836  89.0817 271.0523 13.15550598143768
ONEWEB-0234             
1 48783U 21045S   24125.86849543  .00000222  00000+0  55487-3 0  9990
2 48783  87.9053  53.0757 0003216  69.8350 290.3126 13.15547751143936
ONEWEB-0238             
1 48784U 21045T   24125.82253647 -.00000045  00000+0 -15490-3 0  9996
2 48784  87.9048  53.1029 0002066  77.1423 282.9938 13.15549844143820
ONEWEB-0240             
1 48785U 21045U   24126.36444474 -.00000939  00000+0 -25290-2 0  9997
2 48785  87.9047  52.9630 0002188  91.3583 268.7798 13.15551024143914
ONEWEB-0246             
1 48786U 21045V   24126.28284201 -.00000098  00000+0 -29449-3 0  9996
2 48786  87.9051  52.9831 0001764  82.1580 277.9751 13.15550457143771
ONEWEB-0210             
1 48787U 21045W   24126.33356066 -.00002316  00000+0 -61892-2 0  9994
2 48787  87.9045  52.9785 0001156  96.5655 263.5607 13.15526535143838
ONEWEB-0214             
1 48788U 21045X   24126.34305002 -.00000013  00000+0 -69272-4 0  9994
2 48788  87.9051  52.9653 0001288  89.0001 271.1277 13.15550805143798
ONEWEB-0221             
1 48789U 21045Y   24126.34938181 -.00000083  00000+0 -25469-3 0  9991
2 48789  87.9052  52.9807 0001977  89.4822 270.6535 13.15546989143903
ONEWEB-0213             
1 48790U 21045Z   24126.18618398  .00000109  00000+0  25632-3 0  9999
2 48790  87.9052  53.0277 0001880  92.7762 267.3584 13.15550791143937
ONEWEB-0212             
1 48791U 21045AA  24125.32658800  .00000514  00000+0  13306-2 0  9991
2 48791  87.9050  53.1806 0001892  76.8767 283.2574 13.15550340143820
ONEWEB-0227             
1 48792U 21045AB  24126.31452257  .00000128  00000+0  30578-3 0  9992
2 48792  87.9050  53.0001 0001945  84.7535 275.3817 13.15551280143890
ONEWEB-0226             
1 48793U 21045AC  24126.30819109  .00000095  00000+0  21772-3 0  9994
2 48793  87.9047  53.0083 0001616  97.0596 263.0718 13.15550992143855
ONEWEB-0224             
1 48794U 21045AD  24126.19569551 -.00000001  00000+0 -37722-4 0  9997
2 48794  87.9055  53.0498 0002515  95.0668 265.0749 13.15550660143760
ONEWEB-0233             
1 48795U 21045AE  24126.34383955  .00000010  00000+0 -73814-5 0  9999
2 48795  87.9054  53.0318 0001743  82.6335 277.4994 13.15550663143791
ONEWEB-0190             
1 48796U 21045AF  24126.33988564  .00000051  00000+0  10199-3 0  9995
2 48796  87.9055  52.9958 0001921 111.7196 248.4138 13.15549210143871
ONEWEB-0236             
1 48797U 21045AG  24125.52069136 -.00000152  00000+0 -43780-3 0  9997
2 48797  87.9057  53.1511 0001972  83.5620 276.5735 13.15548365143657
ONEWEB-0248             
1 48798U 21045AH  24125.83759231 -.00000017  00000+0 -78914-4 0  9992
2 48798  87.9046  53.0823 0002432  98.4996 261.6410 13.15549407143859
ONEWEB-0225             
1 48799U 21045AJ  24126.16400701  .00000185  00000+0  45655-3 0  9994
2 48799  87.9053  53.0274 0001994  95.3636 264.7722 13.15549003143927
ONEWEB-0215             
1 48800U 21045AK  24126.28603298  .00001991  00000+0  52548-2 0  9990
2 48800  87.9047  52.9792 0002304 104.3535 255.7851 13.15539246143797
ONEWEB-0216             
1 48801U 21045AL  24126.06734235 -.00000044  00000+0 -14986-3 0  9998
2 48801  87.9047  53.0636 0001619  81.5944 278.5370 13.15551016143771
ONEWEB-0239             
1 48802U 21045AM  24126.30027928  .00000031  00000+0  49054-4 0  9999
2 48802  87.9056  52.9891 0002552 102.0390 258.1027 13.15550423143868
ONEWEB-0249             
1 48967U 21060A   24126.16301620  .00000130  00000+0  30765-3 0  9994
2 48967  87.9148  22.6460 0001848  79.4104 280.7235 13.16592616139188
ONEWEB-0250             
1 48968U 21060B   24126.16777208  .00000096  00000+0  21872-3 0  9994
2 48968  87.9149  22.6287 0001990  88.4476 271.6883 13.16595131139168
ONEWEB-0252             
1 48970U 21060D   24125.73869604 -.00000004  00000+0 -43387-4 0  9998
2 48970  87.9149  22.7235 0001688  81.0626 279.0696 13.16595824139179
ONEWEB-0253             
1 48971U 21060E   24125.42362699 -.00000002  00000+0 -38485-4 0  9998
2 48971  87.9149  22.7988 0001767  89.8436 270.2897 13.16592431139052
ONEWEB-0254             
1 48972U 21060F   24126.26910509  .00000018  00000+0  12518-4 0  9995
2 48972  87.9150  22.6078 0001780  91.6335 268.5000 13.16596886139164
ONEWEB-0255             
1 48973U 21060G   24125.77512057  .00000112  00000+0  26032-3 0  9997
2 48973  87.9146  22.7409 0001858  81.8511 278.2830 13.16591857139186
ONEWEB-0256             
1 48974U 21060H   24125.72522359  .00000041  00000+0  73961-4 0  9994
2 48974  87.9153  22.7525 0001671  75.9096 284.2220 13.16597850139144
ONEWEB-0257             
1 48975U 21060J   24126.21367299 -.00000299  00000+0 -81451-3 0  9999
2 48975  87.9148  22.6277 0001683  82.2619 277.8703 13.16594241139164
ONEWEB-0258             
1 48976U 21060K   24125.75927793  .00000053  00000+0  10564-3 0  9992
2 48976  87.9146  22.7465 0001903  81.1725 278.9622 13.16596443139106
ONEWEB-0259             
1 48977U 21060L   24126.20892774 -.00000054  00000+0 -17418-3 0  9992
2 48977  87.9148  22.6422 0002091  86.5592 273.5778 13.16596634139207
ONEWEB-0260             
1 48978U 21060M   24125.44024944 -.00000027  00000+0 -10376-3 0  9990
2 48978  87.9147  22.8230 0001211  73.6222 286.5042 13.16598448139074
ONEWEB-0261             
1 48979U 21060N   24125.78935706  .00000199  00000+0  48631-3 0  9998
2 48979  87.9151  22.7465 0001609 101.1963 258.9349 13.16597215139196
ONEWEB-0262             
1 48980U 21060P   24125.69437248  .00000094  00000+0  21347-3 0  9997
2 48980  87.9147  22.7308 0002163  93.6926 266.4452 13.16593284139145
ONEWEB-0263             
1 48981U 21060Q   24125.72603349  .00000171  00000+0  41246-3 0  9995
2 48981  87.9153  22.7392 0001824  97.6584 262.4754 13.16595015139115
ONEWEB-0264             
1 48982U 21060R   24125.76323780  .00000035  00000+0  57545-4 0  9997
2 48982  87.9148  22.7439 0001776  82.4306 277.7027 13.16595786139119
ONEWEB-0266             
1 48984U 21060T   24126.16459833  .00000134  00000+0  31776-3 0  9990
2 48984  87.9148  22.6428 0001916  79.3334 280.8013 13.16594928139162
ONEWEB-0267             
1 48985U 21060U   24125.79569649  .00000199  00000+0  48742-3 0  9998
2 48985  87.9150  22.7173 0001621  91.1405 268.9912 13.16595217139110
ONEWEB-0268             
1 48986U 21060V   24126.14400876 -.00000180  00000+0 -50317-3 0  9998
2 48986  87.9146  22.6544 0001685  81.2445 278.8877 13.16593883139422
ONEWEB-0269             
1 48987U 21060W   24126.20100786 -.00000027  00000+0 -10372-3 0  9990
2 48987  87.9153  22.6672 0001640  71.8501 288.2808 13.16597955139212
ONEWEB-0270             
1 48988U 21060X   24125.76245204  .00000090  00000+0  20168-3 0  9998
2 48988  87.9144  22.7389 0002004  98.6311 261.5047 13.16595978139201
